start=new Date('2022-04-22T00:00:00.000Z').valueOf();
sats=[{"MEAN_MOTION":"15.06400532","FILE":"3410449","ELEMENT_SET_NO":"999","OBJECT_TYPE":"PAYLOAD","MEAN_ANOMALY":"296.6450","REF_FRAME":"TEME","BSTAR":"0.00010308000000","GP_ID":"201747141","MEAN_ELEMENT_THEORY":"SGP4","TLE_LINE2":"2 45681  53.0558 305.5806 0001373  63.4680 296.6450 15.06400532105037","COUNTRY_CODE":"US","TLE_LINE1":"1 45681U 20035AA  22110.95097981  .00001254  00000-0  10308-3 0  9995","OBJECT_NAME":"STARLINK-1396","DECAY_DATE":null,"CLASSIFICATION_TYPE":"U","NORAD_CAT_ID":"45681","PERIAPSIS":"546.261","ARG_OF_PERICENTER":"63.4680","APOAPSIS":"548.163","TIME_SYSTEM":"UTC","EPHEMERIS_TYPE":"0","REV_AT_EPOCH":"10503","EPOCH":"2022-04-20T22:49:24.655584","RCS_SIZE":"LARGE","LAUNCH_DATE":"2020-06-04","MEAN_MOTION_DOT":"0.00001254","RA_OF_ASC_NODE":"305.5806","CENTER_NAME":"EARTH","MEAN_MOTION_DDOT":"0.0000000000000","OBJECT_ID":"2020-035AA","SEMIMAJOR_AXIS":"6925.347","INCLINATION":"53.0558","ECCENTRICITY":"0.00013730","SITE":"AFETR","PERIOD":"95.592"},{"GP_ID":"201773758","BSTAR":"0.00009688700000","REF_FRAME":"TEME","OBJECT_TYPE":"PAYLOAD","MEAN_ANOMALY":"304.5751","ELEMENT_SET_NO":"999","MEAN_MOTION":"15.06397260","FILE":"3410450","APOAPSIS":"548.397","ARG_OF_PERICENTER":"55.5399","PERIAPSIS":"546.047","CLASSIFICATION_TYPE":"U","DECAY_DATE":null,"NORAD_CAT_ID":"45682","OBJECT_NAME":"STARLINK-1397","TLE_LINE1":"1 45682U 20035AB  22111.82085954  .00001162  00000-0  96887-4 0  9995","TLE_LINE2":"2 45682  53.0539 301.6653 0001697  55.5399 304.5751 15.06397260105151","COUNTRY_CODE":"US","MEAN_ELEMENT_THEORY":"SGP4","RA_OF_ASC_NODE":"301.6653","MEAN_MOTION_DOT":"0.00001162","LAUNCH_DATE":"2020-06-04","RCS_SIZE":"LARGE","EPOCH":"2022-04-21T19:42:02.264256","REV_AT_EPOCH":"10515","EPHEMERIS_TYPE":"0","TIME_SYSTEM":"UTC","PERIOD":"95.592","SITE":"AFETR","ECCENTRICITY":"0.00016970","INCLINATION":"53.0539","OBJECT_ID":"2020-035AB","SEMIMAJOR_AXIS":"6925.357","MEAN_MOTION_DDOT":"0.0000000000000","CENTER_NAME":"EARTH"},{"PERIAPSIS":"546.219","ARG_OF_PERICENTER":"70.3753","APOAPSIS":"548.186","DECAY_DATE":null,"NORAD_CAT_ID":"45683","CLASSIFICATION_TYPE":"U","COUNTRY_CODE":"US","TLE_LINE2":"2 45683  53.0527 301.7704 0001420  70.3753 289.7389 15.06403586104755","TLE_LINE1":"1 45683U 20035AC  22111.80242975  .00002203  00000-0  16671-3 0  9991","OBJECT_NAME":"STARLINK-1399","MEAN_ELEMENT_THEORY":"SGP4","GP_ID":"201773503","MEAN_ANOMALY":"289.7389","OBJECT_TYPE":"PAYLOAD","REF_FRAME":"TEME","BSTAR":"0.00016671000000","MEAN_MOTION":"15.06403586","FILE":"3410450","ELEMENT_SET_NO":"999","SITE":"AFETR","PERIOD":"95.592","INCLINATION":"53.0527","ECCENTRICITY":"0.00014200","CENTER_NAME":"EARTH","MEAN_MOTION_DDOT":"0.0000000000000","SEMIMAJOR_AXIS":"6925.338","OBJECT_ID":"2020-035AC","RA_OF_ASC_NODE":"301.7704","LAUNCH_DATE":"2020-06-04","MEAN_MOTION_DOT":"0.00002203","EPOCH":"2022-04-21T19:15:29.930400","RCS_SIZE":"LARGE","TIME_SYSTEM":"UTC","EPHEMERIS_TYPE":"0","REV_AT_EPOCH":"10475"},{"GP_ID":"201772757","OBJECT_TYPE":"PAYLOAD","REF_FRAME":"TEME","MEAN_ANOMALY":"291.8736","BSTAR":"0.00016334000000","FILE":"3410450","MEAN_MOTION":"15.06405412","ELEMENT_SET_NO":"999","ARG_OF_PERICENTER":"68.2405","PERIAPSIS":"546.207","APOAPSIS":"548.187","NORAD_CAT_ID":"45684","DECAY_DATE":null,"CLASSIFICATION_TYPE":"U","TLE_LINE1":"1 45684U 20035AD  22111.84665243  .00002153  00000-0  16334-3 0  9993","TLE_LINE2":"2 45684  53.0543 301.5615 0001429  68.2405 291.8736 15.06405412105179","COUNTRY_CODE":"US","OBJECT_NAME":"STARLINK-1401","MEAN_ELEMENT_THEORY":"SGP4","RA_OF_ASC_NODE":"301.5615","LAUNCH_DATE":"2020-06-04","MEAN_MOTION_DOT":"0.00002153","EPOCH":"2022-04-21T20:19:10.769952","RCS_SIZE":"LARGE","TIME_SYSTEM":"UTC","EPHEMERIS_TYPE":"0","REV_AT_EPOCH":"10517","SITE":"AFETR","PERIOD":"95.592","INCLINATION":"53.0543","ECCENTRICITY":"0.00014290","MEAN_MOTION_DDOT":"0.0000000000000","CENTER_NAME":"EARTH","SEMIMAJOR_AXIS":"6925.332","OBJECT_ID":"2020-035AD"},{"RA_OF_ASC_NODE":"302.1920","MEAN_MOTION_DOT":"0.00000614","LAUNCH_DATE":"2020-06-04","RCS_SIZE":"LARGE","EPOCH":"2022-04-21T17:02:48.211008","REV_AT_EPOCH":"10474","EPHEMERIS_TYPE":"0","TIME_SYSTEM":"UTC","PERIOD":"95.592","SITE":"AFETR","ECCENTRICITY":"0.00016300","INCLINATION":"53.0546","SEMIMAJOR_AXIS":"6925.353","OBJECT_ID":"2020-035AE","CENTER_NAME":"EARTH","MEAN_MOTION_DDOT":"0.0000000000000","GP_ID":"201773007","BSTAR":"0.00006014700000","REF_FRAME":"TEME","OBJECT_TYPE":"PAYLOAD","MEAN_ANOMALY":"294.6097","ELEMENT_SET_NO":"999","FILE":"3410450","MEAN_MOTION":"15.06398484","APOAPSIS":"548.347","PERIAPSIS":"546.089","ARG_OF_PERICENTER":"65.5062","NORAD_CAT_ID":"45685","DECAY_DATE":null,"CLASSIFICATION_TYPE":"U","OBJECT_NAME":"STARLINK-1402","TLE_LINE2":"2 45685  53.0546 302.1920 0001630  65.5062 294.6097 15.06398484104745","COUNTRY_CODE":"US","TLE_LINE1":"1 45685U 20035AE  22111.71028022  .00000614  00000-0  60147-4 0  9990","MEAN_ELEMENT_THEORY":"SGP4"},{"TLE_LINE1":"1 45686U 20035AF  22110.97309528  .00005933  00000-0  41688-3 0  9998","TLE_LINE2":"2 45686  53.0541 305.4806 0001622  50.5858 309.5274 15.06397739105047","COUNTRY_CODE":"US","OBJECT_NAME":"STARLINK-1404","MEAN_ELEMENT_THEORY":"SGP4","ARG_OF_PERICENTER":"50.5858","PERIAPSIS":"546.097","APOAPSIS":"548.344","DECAY_DATE":null,"CLASSIFICATION_TYPE":"U","NORAD_CAT_ID":"45686","OBJECT_TYPE":"PAYLOAD","REF_FRAME":"TEME","MEAN_ANOMALY":"309.5274","BSTAR":"0.00041688000000","MEAN_MOTION":"15.06397739","FILE":"3410449","ELEMENT_SET_NO":"999","GP_ID":"201747388","MEAN_MOTION_DDOT":"0.0000000000000","CENTER_NAME":"EARTH","SEMIMAJOR_AXIS":"6925.355","OBJECT_ID":"2020-035AF","SITE":"AFETR","PERIOD":"95.592","INCLINATION":"53.0541","ECCENTRICITY":"0.00016220","EPOCH":"2022-04-20T23:21:15.432192","RCS_SIZE":"LARGE","TIME_SYSTEM":"UTC","EPHEMERIS_TYPE":"0","REV_AT_EPOCH":"10504","RA_OF_ASC_NODE":"305.4806","LAUNCH_DATE":"2020-06-04","MEAN_MOTION_DOT":"0.00005933"},{"LAUNCH_DATE":"2020-06-04","MEAN_MOTION_DOT":"-0.00000021","RA_OF_ASC_NODE":"303.7137","EPHEMERIS_TYPE":"0","TIME_SYSTEM":"UTC","REV_AT_EPOCH":"10509","EPOCH":"2022-04-21T08:43:52.771872","RCS_SIZE":"LARGE","INCLINATION":"53.0540","ECCENTRICITY":"0.00013350","SITE":"AFETR","PERIOD":"95.592","MEAN_MOTION_DDOT":"0.0000000000000","CENTER_NAME":"EARTH","OBJECT_ID":"2020-035AH","SEMIMAJOR_AXIS":"6925.327","GP_ID":"201748637","FILE":"3410449","MEAN_MOTION":"15.06407170","ELEMENT_SET_NO":"999","REF_FRAME":"TEME","OBJECT_TYPE":"PAYLOAD","MEAN_ANOMALY":"286.5856","BSTAR":"0.00001750400000","DECAY_DATE":null,"CLASSIFICATION_TYPE":"U","NORAD_CAT_ID":"45688","ARG_OF_PERICENTER":"73.5279","PERIAPSIS":"546.267","APOAPSIS":"548.116","MEAN_ELEMENT_THEORY":"SGP4","TLE_LINE1":"1 45688U 20035AH  22111.36380523 -.00000021  00000-0  17504-4 0  9993","TLE_LINE2":"2 45688  53.0540 303.7137 0001335  73.5279 286.5856 15.06407170105095","COUNTRY_CODE":"US","OBJECT_NAME":"STARLINK-1408"},{"GP_ID":"201772257","BSTAR":"0.00012878000000","OBJECT_TYPE":"PAYLOAD","REF_FRAME":"TEME","MEAN_ANOMALY":"296.8295","ELEMENT_SET_NO":"999","FILE":"3410450","MEAN_MOTION":"15.06401243","APOAPSIS":"548.321","ARG_OF_PERICENTER":"63.2858","PERIAPSIS":"546.099","CLASSIFICATION_TYPE":"U","DECAY_DATE":null,"NORAD_CAT_ID":"45689","OBJECT_NAME":"STARLINK-1413","TLE_LINE1":"1 45689U 20035AJ  22111.78768148  .00001637  00000-0  12878-3 0  9994","TLE_LINE2":"2 45689  53.0553 301.8307 0001604  63.2858 296.8295 15.06401243105070","COUNTRY_CODE":"US","MEAN_ELEMENT_THEORY":"SGP4","RA_OF_ASC_NODE":"301.8307","MEAN_MOTION_DOT":"0.00001637","LAUNCH_DATE":"2020-06-04","RCS_SIZE":"LARGE","EPOCH":"2022-04-21T18:54:15.679872","REV_AT_EPOCH":"10507","EPHEMERIS_TYPE":"0","TIME_SYSTEM":"UTC","PERIOD":"95.592","SITE":"AFETR","ECCENTRICITY":"0.00016040","INCLINATION":"53.0553","OBJECT_ID":"2020-035AJ","SEMIMAJOR_AXIS":"6925.345","MEAN_MOTION_DDOT":"0.0000000000000","CENTER_NAME":"EARTH"},{"ECCENTRICITY":"0.00015290","INCLINATION":"53.0002","PERIOD":"95.644","SITE":"AFETR","SEMIMAJOR_AXIS":"6927.834","OBJECT_ID":"2020-035AK","MEAN_MOTION_DDOT":"0.0000000000000","CENTER_NAME":"EARTH","MEAN_MOTION_DOT":"-0.00000813","LAUNCH_DATE":"2020-06-04","RA_OF_ASC_NODE":"305.6473","REV_AT_EPOCH":"10458","TIME_SYSTEM":"UTC","EPHEMERIS_TYPE":"0","RCS_SIZE":"LARGE","EPOCH":"2022-04-20T22:32:53.129184","DECAY_DATE":null,"NORAD_CAT_ID":"45690","CLASSIFICATION_TYPE":"U","APOAPSIS":"550.758","ARG_OF_PERICENTER":"71.8169","PERIAPSIS":"548.640","MEAN_ELEMENT_THEORY":"SGP4","OBJECT_NAME":"STARLINK-1414","TLE_LINE1":"1 45690U 20035AK  22110.93950381 -.00000813  00000-0 -36623-4 0  9996","TLE_LINE2":"2 45690  53.0002 305.6473 0001529  71.8169 288.2985 15.05589356104580","COUNTRY_CODE":"US","GP_ID":"201722214","ELEMENT_SET_NO":"999","FILE":"3410189","MEAN_MOTION":"15.05589356","BSTAR":"-0.00003662300000","OBJECT_TYPE":"PAYLOAD","MEAN_ANOMALY":"288.2985","REF_FRAME":"TEME"},{"MEAN_MOTION_DDOT":"0.0000000000000","CENTER_NAME":"EARTH","SEMIMAJOR_AXIS":"6925.300","OBJECT_ID":"2020-035AL","SITE":"AFETR","PERIOD":"95.591","INCLINATION":"53.0536","ECCENTRICITY":"0.00015310","EPOCH":"2022-04-20T23:26:33.513792","RCS_SIZE":"LARGE","EPHEMERIS_TYPE":"0","TIME_SYSTEM":"UTC","REV_AT_EPOCH":"10503","RA_OF_ASC_NODE":"305.4693","LAUNCH_DATE":"2020-06-04","MEAN_MOTION_DOT":"-0.00003244","TLE_LINE1":"1 45691U 20035AL  22110.97677678 -.00003244  00000-0 -19890-3 0  9993","TLE_LINE2":"2 45691  53.0536 305.4693 0001531  61.1521 298.9622 15.06415920105035","COUNTRY_CODE":"US","OBJECT_NAME":"STARLINK-1415","MEAN_ELEMENT_THEORY":"SGP4","ARG_OF_PERICENTER":"61.1521","PERIAPSIS":"546.105","APOAPSIS":"548.225","NORAD_CAT_ID":"45691","DECAY_DATE":null,"CLASSIFICATION_TYPE":"U","OBJECT_TYPE":"PAYLOAD","REF_FRAME":"TEME","MEAN_ANOMALY":"298.9622","BSTAR":"-0.00019890000000","FILE":"3410330","MEAN_MOTION":"15.06415920","ELEMENT_SET_NO":"999","GP_ID":"201726064"}];
